NORAD_CAT_ID,OBJECT_NAME,OBJECT_TYPE,EPOCH,MEAN_MOTION,ECCENTRICITY,INCLINATION,RA_OF_ASC_NODE,ARG_OF_PERICENTER,MEAN_ANOMALY,BSTAR,MEAN_MOTION_DOT,MEAN_MOTION_DDOT,TLE_LINE0,TLE_LINE1,TLE_LINE2,SEMIMAJOR_AXIS,PERIOD,APOGEE,PERIGEE,DECAYED
49156.0,STARLINK-3085,PAYLOAD,2023-10-31 06:33:45,14.9833264,0.0002921,69.9991,263.8605,266.4567,93.6258,6.6187e-05,6.97e-06,0.0,0 STARLINK-3085,1 49156U 21082AC  23304.27344851  .00000697  00000-0  66187-4 0  9998,2 49156  69.9991 263.8605 0002921 266.4567  93.6258 14.98332640119161,6950.185,96.107,574.08,570.02,0.0
49156.0,STARLINK-3085,PAYLOAD,2023-10-31 22:35:06,14.98327231,0.0002556,69.9999,262.1772,255.5716,104.516,0.00015161,1.716e-05,0.0,0 STARLINK-3085,1 49156U 21082AC  23304.94104928  .00001716  00000-0  15161-3 0  9999,2 49156  69.9999 262.1772 0002556 255.5716 104.5160 14.98327231119260,6950.201,96.107,573.843,570.29,0.0
49156.0,STARLINK-3085,PAYLOAD,2023-11-01 08:11:54,14.98330585,0.000267,69.9998,261.1673,261.636,98.4497,0.0001629,1.851e-05,0.0,0 STARLINK-3085,1 49156U 21082AC  23305.34160805  .00001851  00000-0  16290-3 0  9994,2 49156  69.9998 261.1673 0002670 261.6360  98.4497 14.98330585119325,6950.191,96.107,573.912,570.2,0.0
49156.0,STARLINK-3085,PAYLOAD,2023-11-01 22:37:07,14.98330388,0.0002685,69.9999,259.6519,260.7733,99.3123,8.6648e-05,9.41e-06,0.0,0 STARLINK-3085,1 49156U 21082AC  23305.94244897  .00000941  00000-0  86648-4 0  9998,2 49156  69.9999 259.6519 0002685 260.7733  99.3123 14.98330388119414,6950.192,96.107,573.923,570.191,0.0
49156.0,STARLINK-3085,PAYLOAD,2023-11-02 14:38:28,14.98328715,0.0002872,69.9994,257.9672,266.1767,93.9063,0.00011228,1.247e-05,0.0,0 STARLINK-3085,1 49156U 21082AC  23306.61004841  .00001247  00000-0  11228-3 0  9997,2 49156  69.9994 257.9672 0002872 266.1767  93.9063 14.98328715119510,6950.197,96.107,574.058,570.066,0.0
49156.0,STARLINK-3085,PAYLOAD,2023-11-02 22:39:08,14.98330482,0.0002886,69.9992,257.1259,264.0985,95.9845,4.8727e-05,4.88e-06,0.0,0 STARLINK-3085,1 49156U 21082AC  23306.94384855  .00000488  00000-0  48727-4 0  9990,2 49156  69.9992 257.1259 0002886 264.0985  95.9845 14.98330482119564,6950.191,96.107,574.062,570.051,0.0
49156.0,STARLINK-3085,PAYLOAD,2023-11-03 06:39:48,14.98334527,0.0002881,69.9996,256.2854,267.3607,92.7222,9.3601e-05,1.024e-05,0.0,0 STARLINK-3085,1 49156U 21082AC  23307.27764429  .00001024  00000-0  93601-4 0  9994,2 49156  69.9996 256.2854 0002881 267.3607  92.7222 14.98334527119615,6950.179,96.107,574.046,570.042,0.0
49156.0,STARLINK-3085,PAYLOAD,2023-11-03 14:40:29,14.98323409,0.000241,70.0012,255.4447,262.773,97.3155,0.00014666,1.657e-05,0.0,0 STARLINK-3085,1 49156U 21082AC  23307.61145169  .00001657  00000-0  14666-3 0  9991,2 49156  70.0012 255.4447 0002410 262.7730  97.3155 14.98323409119668,6950.213,96.107,573.753,570.403,0.0
49156.0,STARLINK-3085,PAYLOAD,2023-11-03 22:41:09,14.98329655,0.0002736,70.0007,254.6036,265.9934,94.0912,5.7409e-05,5.92e-06,0.0,0 STARLINK-3085,1 49156U 21082AC  23307.94524845  .00000592  00000-0  57409-4 0  9999,2 49156  70.0007 254.6036 0002736 265.9934  94.0912 14.98329655119719,6950.194,96.107,573.961,570.157,0.0
49156.0,STARLINK-3085,PAYLOAD,2023-11-04 05:05:41,14.98336285,0.0002962,69.9995,253.9294,269.4727,90.6093,8.2571e-05,8.93e-06,0.0,0 STARLINK-3085,1 49156U 21082AC  23308.21228366  .00000893  00000-0  82571-4 0  9991,2 49156  69.9995 253.9294 0002962 269.4727  90.6093 14.98336285119753,6950.173,96.107,574.097,569.98,0.0
49156.0,STARLINK-3085,PAYLOAD,2023-11-04 06:41:49,14.983388,0.0002945,69.9996,253.761,269.0068,91.0754,0.00010357,1.143e-05,0.0,0 STARLINK-3085,1 49156U 21082AC  23308.27904141  .00001143  00000-0  10357-3 0  9990,2 49156  69.9996 253.7610 0002945 269.0068  91.0754 14.98338800119764,6950.166,96.106,574.078,569.984,0.0
49156.0,STARLINK-3085,PAYLOAD,2023-11-04 22:43:10,14.98331265,0.0002506,70.0009,252.0798,270.1755,89.9117,1.0958e-05,3.8e-07,0.0,0 STARLINK-3085,1 49156U 21082AC  23308.94664880  .00000038  00000-0  10958-4 0  9997,2 49156  70.0009 252.0798 0002506 270.1755  89.9117 14.98331265119868,6950.189,96.107,573.796,570.312,0.0
49156.0,STARLINK-3085,PAYLOAD,2023-11-05 06:43:50,14.983361,0.0002401,70.001,251.2377,257.6046,102.4845,0.00015075,1.706e-05,0.0,0 STARLINK-3085,1 49156U 21082AC  23309.28044225  .00001706  00000-0  15075-3 0  9997,2 49156  70.0010 251.2377 0002401 257.6046 102.4845 14.98336100119919,6950.174,96.107,573.708,570.37,0.0
49156.0,STARLINK-3085,PAYLOAD,2023-11-05 13:08:22,14.98338503,0.0002547,70.0007,250.5633,271.1849,88.9018,6.1828e-05,6.45e-06,0.0,0 STARLINK-3085,1 49156U 21082AC  23309.54748126  .00000645  00000-0  61828-4 0  9996,2 49156  70.0007 250.5633 0002547 271.1849  88.9018 14.98338503119958,6950.167,96.106,573.802,570.261,0.0
49156.0,STARLINK-3085,PAYLOAD,2023-11-05 22:45:10,14.98344542,0.0002885,69.9995,249.5523,272.5714,87.5115,0.00018344,2.097e-05,0.0,0 STARLINK-3085,1 49156U 21082AC  23309.94803267  .00002097  00000-0  18344-3 0  9995,2 49156  69.9995 249.5523 0002885 272.5714  87.5115 14.98344542120010,6950.148,96.106,574.018,570.008,0.0
49156.0,STARLINK-3085,PAYLOAD,2023-11-06 03:33:32,14.98360853,0.0002522,70.0001,249.0487,264.6261,95.4611,0.0003617,4.229e-05,0.0,0 STARLINK-3085,1 49156U 21082AC  23310.14829781  .00004229  00000-0  36170-3 0  9994,2 49156  70.0001 249.0487 0002522 264.6261  95.4611 14.98360853120047,6950.097,96.105,573.715,570.21,0.0
49156.0,STARLINK-3085,PAYLOAD,2023-11-06 13:10:22,14.98340005,0.0002481,70.0012,248.0378,268.5242,91.5633,1.4601e-06,-7.5e-07,0.0,0 STARLINK-3085,1 49156U 21082AC  23310.54887007 -.00000075  00000-0  14601-5 0  9996,2 49156  70.0012 248.0378 0002481 268.5242  91.5633 14.98340005120108,6950.162,96.106,573.751,570.303,0.0
49156.0,STARLINK-3085,PAYLOAD,2023-11-06 22:47:13,14.98293173,0.0002857,70.0009,247.0281,258.2701,101.8138,-0.00042213,-5.121e-05,0.0,0 STARLINK-3085,1 49156U 21082AC  23310.94945626 -.00005121  00000-0 -42213-3 0  9998,2 49156  70.0009 247.0281 0002857 258.2701 101.8138 14.98293173120163,6950.307,96.109,574.157,570.186,0.0
49156.0,STARLINK-3085,PAYLOAD,2023-11-07 03:35:36,14.98308723,0.0002651,70.0007,246.5226,254.5983,105.4883,-0.00042902,-5.205e-05,0.0,0 STARLINK-3085,1 49156U 21082AC  23311.14973133 -.00005205  00000-0 -42902-3 0  9993,2 49156  70.0007 246.5226 0002651 254.5983 105.4883 14.98308723120195,6950.259,96.108,573.966,570.281,0.0
49156.0,STARLINK-3085,PAYLOAD,2023-11-07 06:47:52,14.98324739,0.0002908,70.0006,246.1855,257.7776,102.3057,-0.00014017,-1.765e-05,0.0,0 STARLINK-3085,1 49156U 21082AC  23311.28324328 -.00001765  00000-0 -14017-3 0  9997,2 49156  70.0006 246.1855 0002908 257.7776 102.3057 14.98324739120215,6950.209,96.107,574.095,570.053,0.0
49156.0,STARLINK-3085,PAYLOAD,2023-11-07 13:12:24,14.98322603,0.0002321,70.0014,245.5127,262.3767,97.7128,-0.00021475,-2.654e-05,0.0,0 STARLINK-3085,1 49156U 21082AC  23311.55028745 -.00002654  00000-0 -21475-3 0  9995,2 49156  70.0014 245.5127 0002321 262.3767  97.7128 14.98322603120258,6950.216,96.107,573.694,570.468,0.0
49156.0,STARLINK-3085,PAYLOAD,2023-11-08 03:37:36,14.98355221,0.00025,70.0016,244.0006,248.2267,111.8626,0.00044175,5.185e-05,0.0,0 STARLINK-3085,1 49156U 21082AC  23312.15111327  .00005185  00000-0  44175-3 0  9993,2 49156  70.0016 244.0006 0002500 248.2267 111.8626 14.98355221120340,6950.115,96.105,573.717,570.242,0.0
49156.0,STARLINK-3085,PAYLOAD,2023-11-08 05:13:45,14.98334577,0.0002507,70.0013,243.8321,255.3944,104.6937,4.5313e-05,4.48e-06,0.0,0 STARLINK-3085,1 49156U 21082AC  23312.21788345  .00000448  00000-0  45313-4 0  9993,2 49156  70.0013 243.8321 0002507 255.3944 104.6937 14.98334577120359,6950.179,96.107,573.786,570.301,0.0
49156.0,STARLINK-3085,PAYLOAD,2023-11-08 19:38:58,14.98321099,0.0002723,70.0011,242.3167,257.9235,102.1619,0.00066766,7.88e-05,0.0,0 STARLINK-3085,1 49156U 21082AC  23312.81873288  .00007880  00000-0  66766-3 0  9991,2 49156  70.0011 242.3167 0002723 257.9235 102.1619 14.98321099120445,6950.22,96.108,573.978,570.193,0.0
49156.0,STARLINK-3085,PAYLOAD,2023-11-08 22:51:14,14.98324574,0.0002709,70.0013,241.9797,258.0948,101.9907,0.00066742,7.878e-05,0.0,0 STARLINK-3085,1 49156U 21082AC  23312.95225195  .00007878  00000-0  66742-3 0  9995,2 49156  70.0013 241.9797 0002709 258.0948 101.9907 14.98324574120468,6950.21,96.107,573.957,570.192,0.0
49156.0,STARLINK-3085,PAYLOAD,2023-11-09 03:39:38,14.98335674,0.0002696,70.0007,241.4751,256.1447,103.9412,0.00064733,7.64e-05,0.0,0 STARLINK-3085,1 49156U 21082AC  23313.15252695  .00007640  00000-0  64733-3 0  9998,2 49156  70.0007 241.4751 0002696 256.1447 103.9412 14.98335674120493,6950.175,96.107,573.914,570.167,0.0
49156.0,STARLINK-3085,PAYLOAD,2023-11-09 05:15:46,14.98338285,0.0002885,70.0005,241.3059,261.4705,98.6127,0.00077038,9.113e-05,0.0,0 STARLINK-3085,1 49156U 21082AC  23313.21928541  .00009113  00000-0  77038-3 0  9994,2 49156  70.0005 241.3059 0002885 261.4705  98.6127 14.98338285120503,6950.167,96.106,574.037,570.027,0.0
49156.0,STARLINK-3085,PAYLOAD,2023-11-09 19:40:59,14.98331887,0.000273,70.0016,239.7929,260.588,99.4971,0.00016796,1.912e-05,0.0,0 STARLINK-3085,1 49156U 21082AC  23313.82012800  .00001912  00000-0  16796-3 0  9996,2 49156  70.0016 239.7929 0002730 260.5880  99.4971 14.98331887120591,6950.187,96.107,573.949,570.155,0.0
49156.0,STARLINK-3085,PAYLOAD,2023-11-09 22:53:15,14.98330963,0.0002759,70.0011,239.4563,260.4303,99.6544,0.00012992,1.458e-05,0.0,0 STARLINK-3085,1 49156U 21082AC  23313.95364832  .00001458  00000-0  12992-3 0  9994,2 49156  70.0011 239.4563 0002759 260.4303  99.6544 14.98330963120612,6950.19,96.107,573.972,570.137,0.0
49156.0,STARLINK-3085,PAYLOAD,2023-11-10 05:17:47,14.98336963,0.0002542,70.001,238.7816,256.3429,103.7447,7.2127e-05,7.68e-06,0.0,0 STARLINK-3085,1 49156U 21082AC  23314.22068476  .00000768  00000-0  72127-4 0  9990,2 49156  70.0010 238.7816 0002542 256.3429 103.7447 14.98336963120656,6950.171,96.107,573.803,570.27,0.0
